DMSP 5D-3 F16 (USA 172) 
1 28054U 03048A   26165.49073758  .00000017  00000+0  32462-4 0  9995
2 28054  98.9891 189.3012 0007635 147.2361 345.7600 14.14482964169109
CHUANGXIN 1 (CX-1)      
1 28058U 03049B   26165.48101912  .00000181  00000+0  60119-4 0  9995
2 28058  98.5084  64.5314 0012226 185.8305 174.2748 14.48583199195881
YAMAL 202               
1 28089U 03053A   26165.54211385 -.00000078  00000+0  00000+0 0  9991
2 28089   6.3363  70.9695 0003329   4.6290 185.9853  1.00271409 82670
UFO 11 (USA 174)        
1 28117U 03057A   26165.12663889 -.00000104  00000+0  00000+0 0  9991
2 28117   8.9324  33.8445 0002641  52.1453 297.6344  1.00274485 82418
NAVSTAR 53 (USA 175)    
1 28129U 03058A   26163.89649932 -.00000069  00000+0  00000+0 0  9990
2 28129  55.0247  23.4258 0001955 339.3640  20.6841  1.92678364164388
USA 176 (DSP 22)        
1 28158U 04004A   26162.97340249 -.00000286  00000+0  00000+0 0  9992
2 28158  12.0550  26.1076 0001239 290.9902 243.8917  1.00406369 32881
ABS-4 (MOBISAT-1)       
1 28184U 04007A   26165.20650102  .00000042  00000+0  00000+0 0  9994
2 28184   6.0345  72.0444 0005189   9.1837 316.5810  1.00272806 52305
NAVSTAR 54 (USA 177)    
1 28190U 04009A   26165.40531458 -.00000029  00000+0  00000+0 0  9993
2 28190  54.8321 275.7997 0116040 172.9554 191.4180  2.00554723162894
SHIYAN-1 (SY-1)         
1 28220U 04012A   26165.11722427  .00013905  00000+0  42897-3 0  9997
2 28220  97.8697 242.9858 0005869  43.2331 316.9370 15.33691010210623
INTELSAT 10-02          
1 28358U 04022A   26165.40336583 -.00000004  00000+0  00000+0 0  9999
2 28358   0.0108 324.0878 0000193 256.5276 186.2869  1.00269700 80525
NAVSTAR 55 (USA 178)    
1 28361U 04023A   26164.32797019 -.00000031  00000+0  00000+0 0  9999
2 28361  54.8614  86.8673 0159959 301.8799 184.9256  2.00556690160963
APRIZESAT 2             
1 28366U 04025A   26165.43193229  .00000132  00000+0  54634-4 0  9990
2 28366  98.1011 331.5683 0104292 258.2655 100.6817 14.38034822151248
SAUDICOMSAT 1           
1 28369U 04025D   26165.26639914  .00000350  00000+0  91190-4 0  9990
2 28369  98.5772 175.3191 0032845  34.3884 325.9430 14.55471674163704
SAUDICOMSAT 2           
1 28370U 04025E   26165.29584458  .00000231  00000+0  71267-4 0  9998
2 28370  98.6642 177.4602 0054139 268.4401  91.0590 14.49979782159684
SAUDISAT 2              
1 28371U 04025F   26165.48745741  .00000228  00000+0  61943-4 0  9990
2 28371  98.5508 165.3996 0023692 306.9351  52.9676 14.56682552165355
APRIZESAT 1             
1 28372U 04025G   26165.26215389  .00000199  00000+0  61045-4 0  9997
2 28372  98.6304 175.9081 0044926 162.6320 197.6423 14.51775632161483
AURA                    
1 28376U 04026A   26165.45265873  .00000679  00000+0  14720-3 0  9996
2 28376  98.3417 121.8833 0001238  73.7135 286.4202 14.61325390165815
ANIK F2                 
1 28378U 04027A   26165.50113971 -.00000045  00000+0  00000+0 0  9996
2 28378   3.2801  79.4822 0003993   6.9388 245.6603  1.00271308 41232
COSMOS 2407             
1 28380U 04028A   26165.54436310  .00000049  00000+0  34789-4 0  9998
2 28380  82.9608  76.7915 0037811 259.6222 274.4137 13.76334536 99512
SHIJIAN-6 01A (SJ-6 01A)
1 28413U 04035A   26165.33120106  .00007305  00000+0  36272-3 0  9993
2 28413  97.5859 192.4273 0007563 136.2009 223.9825 15.17962461187035
SHIJIAN-6 01B (SJ-6 01B)
1 28414U 04035B   26165.52770734  .00006976  00000+0  47855-3 0  9995
2 28414  97.6043 183.4281 0005663 135.6555 224.5127 15.06307854186420
COSMOS 2408             
1 28419U 04037A   26165.51865995  .00000006  00000+0 -26621-4 0  9993
2 28419  82.4847 327.5367 0015015 274.5087  85.4279 12.45680108987573
COSMOS 2409             
1 28420U 04037B   26165.47810005 -.00000002  00000+0 -79520-4 0  9995
2 28420  82.4849 330.7877 0012660 286.8712  73.0981 12.45323951987217
AMC-15                  
1 28446U 04041A   26165.49002992 -.00000081  00000+0  00000+0 0  9996
2 28446   0.0187 330.0587 0002095 124.7516 239.3508  1.00271448 79272
JB-3 3 (ZY 2C)          
1 28470U 04044A   26165.42859256  .00003873  00000+0  18423-3 0  9995
2 28470  97.2757 319.1229 0032135 228.6163 131.2308 15.19306966187368
NAVSTAR 56 (USA 180)    
1 28474U 04045A   26164.33708674 -.00000074  00000+0  00000+0 0  9995
2 28474  55.1372 325.0509 0169805 316.2769  61.7561  2.00555605158353
SWIFT                   
1 28485U 04047A   26164.81561905  .00048901  00000+0  41135-3 0  9994
2 28485  20.5521 210.9067 0001739 231.5121 128.5169 15.68026337186338
NANOSAT-1               
1 28493U 04049B   26165.32984404  .00000907  00000+0  12672-3 0  9993
2 28493  98.2272 301.9210 0002949 315.3065  44.7908 14.80154534155021
COSMOS 2414             
1 28521U 05002A   26165.36477708  .00000066  00000+0  42052-4 0  9995
2 28521  82.9501  45.7817 0039664 339.4728  20.4839 13.87926356 83424
NSS-10                  
1 28526U 05003A   26165.11094976 -.00000248  00000+0  00000+0 0  9991
2 28526   6.4417  70.4904 0002656   2.3381 192.0841  1.00270897 53127
INMARSAT 4-F1           
1 28628U 05009A   26165.43883397  .00000036  00000+0  00000+0 0  9992
2 28628   5.1643  42.7535 0002439  41.9574 154.1284  1.00271419 77645
